SL-16 R/B               
1 24298U 96051B   25303.14540399 -.00000073  00000+0 -13061-4 0  9990
2 24298  70.7584  91.5538 0017203 317.3760  42.6023 14.12392369503217
ORBVIEW 2 (SEASTAR)     
1 24883U 97037A   25303.27870265  .00000481  00000+0  18403-3 0  9992
2 24883  98.8439  99.2664 0003240  87.7050 272.4506 14.35366951489763
SL-16 R/B               
1 25400U 98043G   25303.29611066  .00000136  00000+0  75718-4 0  9990
2 25400  98.8046 250.8877 0010543  37.6773 322.5143 14.26008886420404
SL-16 R/B               
1 25407U 98045B   25302.83029662  .00000307  00000+0  17943-3 0  9998
2 25407  71.0092  96.7633 0009145 234.6054 125.4216 14.16163518408577
ISS (ZARYA)             
1 25544U 98067A   25303.19892820  .00018950  00000+0  34377-3 0  9991
2 25544  51.6344 358.0397 0004876 356.3572   3.7380 15.49612377536107
CZ-4B R/B               
1 25732U 99025C   25303.15056784  .00000099  00000+0  68527-4 0  9992
2 25732  98.6837 345.3908 0037092   2.0774  65.1800 14.18227393369665
OKEAN-O                 
1 25860U 99039A   25303.11750399  .00000962  00000+0  13388-3 0  9991
2 25860  97.9666 359.1845 0001804  77.4298 282.7115 14.80049884415070
SL-16 R/B               
1 25861U 99039B   25303.15476805  .00000838  00000+0  11371-3 0  9995
2 25861  98.0190 357.2899 0014017 325.4085  34.6214 14.81492013417537
DELTA 2 R/B             
1 25876U 99041E   25302.87765415  .00000788  00000+0  16573-3 0  9993
2 25876  51.7628 103.5068 0504594 322.4927  34.1772 14.11249873344553
HELIOS 1B               
1 25977U 99064A   25303.27091345  .00002776  00000+0  31631-3 0  9990
2 25977  98.1756 196.6549 0002424 101.6982 258.4506 14.87013747665871
TERRA                   
1 25994U 99068A   25303.31232705  .00000688  00000+0  14978-3 0  9990
2 25994  97.9812 356.5751 0001414 202.8624 227.3553 14.60875945376049
SL-16 R/B               
1 26070U 00006B   25303.30639595  .00000325  00000+0  18917-3 0  9992
2 26070  71.0044  11.9825 0015955  12.3846 347.7666 14.15796473330101
