CCSDS_OMM_VERS = 2.0
CREATION_DATE  = 
ORIGINATOR     = 

OBJECT_NAME    = SL-16 R/B
OBJECT_ID      = 1996-051B
CENTER_NAME    = EARTH
REF_FRAME      = TEME
TIME_SYSTEM    = UTC
MEAN_ELEMENT_THEORY = SGP/SGP4

EPOCH          = 2025-10-30T03:29:22.904736
MEAN_MOTION    = 14.12392369
ECCENTRICITY   = .00172036
INCLINATION    = 70.7584
RA_OF_ASC_NODE = 91.5538
ARG_OF_PERICENTER = 317.3760
MEAN_ANOMALY   = 42.6023

EPHEMERIS_TYPE = 0
CLASSIFICATION_TYPE = U
NORAD_CAT_ID   = 24298
ELEMENT_SET_NO = 999
REV_AT_EPOCH   = 50321
BSTAR          = -.13061453E-4
MEAN_MOTION_DOT = -.73E-6
MEAN_MOTION_DDOT = 0

CCSDS_OMM_VERS = 2.0
CREATION_DATE  = 
ORIGINATOR     = 

OBJECT_NAME    = ORBVIEW 2 (SEASTAR)
OBJECT_ID      = 1997-037A
CENTER_NAME    = EARTH
REF_FRAME      = TEME
TIME_SYSTEM    = UTC
MEAN_ELEMENT_THEORY = SGP/SGP4

EPOCH          = 2025-10-30T06:41:19.908960
MEAN_MOTION    = 14.35366951
ECCENTRICITY   = .000324
INCLINATION    = 98.8439
RA_OF_ASC_NODE = 99.2664
ARG_OF_PERICENTER = 87.7050
MEAN_ANOMALY   = 272.4506

EPHEMERIS_TYPE = 0
CLASSIFICATION_TYPE = U
NORAD_CAT_ID   = 24883
ELEMENT_SET_NO = 999
REV_AT_EPOCH   = 48976
BSTAR          = .18402911E-3
MEAN_MOTION_DOT = .481E-5
MEAN_MOTION_DDOT = 0

CCSDS_OMM_VERS = 2.0
CREATION_DATE  = 
ORIGINATOR     = 

OBJECT_NAME    = SL-16 R/B
OBJECT_ID      = 1998-043G
CENTER_NAME    = EARTH
REF_FRAME      = TEME
TIME_SYSTEM    = UTC
MEAN_ELEMENT_THEORY = SGP/SGP4

EPOCH          = 2025-10-30T07:06:23.961024
MEAN_MOTION    = 14.26008886
ECCENTRICITY   = .00105439
INCLINATION    = 98.8046
RA_OF_ASC_NODE = 250.8877
ARG_OF_PERICENTER = 37.6773
MEAN_ANOMALY   = 322.5143

EPHEMERIS_TYPE = 0
CLASSIFICATION_TYPE = U
NORAD_CAT_ID   = 25400
ELEMENT_SET_NO = 999
REV_AT_EPOCH   = 42040
BSTAR          = .75718142E-4
MEAN_MOTION_DOT = .136E-5
MEAN_MOTION_DDOT = 0

CCSDS_OMM_VERS = 2.0
CREATION_DATE  = 
ORIGINATOR     = 

OBJECT_NAME    = SL-16 R/B
OBJECT_ID      = 1998-045B
CENTER_NAME    = EARTH
REF_FRAME      = TEME
TIME_SYSTEM    = UTC
MEAN_ELEMENT_THEORY = SGP/SGP4

EPOCH          = 2025-10-29T19:55:37.627968
MEAN_MOTION    = 14.16163518
ECCENTRICITY   = .0009145
INCLINATION    = 71.0092
RA_OF_ASC_NODE = 96.7633
ARG_OF_PERICENTER = 234.6054
MEAN_ANOMALY   = 125.4216

EPHEMERIS_TYPE = 0
CLASSIFICATION_TYPE = U
NORAD_CAT_ID   = 25407
ELEMENT_SET_NO = 999
REV_AT_EPOCH   = 40857
BSTAR          = .17942725E-3
MEAN_MOTION_DOT = .307E-5
MEAN_MOTION_DDOT = 0

CCSDS_OMM_VERS = 2.0
CREATION_DATE  = 
ORIGINATOR     = 

OBJECT_NAME    = ISS (ZARYA)
OBJECT_ID      = 1998-067A
CENTER_NAME    = EARTH
REF_FRAME      = TEME
TIME_SYSTEM    = UTC
MEAN_ELEMENT_THEORY = SGP/SGP4

EPOCH          = 2025-10-30T04:46:27.396480
MEAN_MOTION    = 15.49612377
ECCENTRICITY   = .00048762
INCLINATION    = 51.6344
RA_OF_ASC_NODE = 358.0397
ARG_OF_PERICENTER = 356.3572
MEAN_ANOMALY   = 3.7380

EPHEMERIS_TYPE = 0
CLASSIFICATION_TYPE = U
NORAD_CAT_ID   = 25544
ELEMENT_SET_NO = 999
REV_AT_EPOCH   = 53610
BSTAR          = .34377426E-3
MEAN_MOTION_DOT = .1895E-3
MEAN_MOTION_DDOT = 0

CCSDS_OMM_VERS = 2.0
CREATION_DATE  = 
ORIGINATOR     = 

OBJECT_NAME    = CZ-4B R/B
OBJECT_ID      = 1999-025C
CENTER_NAME    = EARTH
REF_FRAME      = TEME
TIME_SYSTEM    = UTC
MEAN_ELEMENT_THEORY = SGP/SGP4

EPOCH          = 2025-10-30T03:36:49.061376
MEAN_MOTION    = 14.18227393
ECCENTRICITY   = .00370925
INCLINATION    = 98.6837
RA_OF_ASC_NODE = 345.3908
ARG_OF_PERICENTER = 2.0774
MEAN_ANOMALY   = 65.1800

EPHEMERIS_TYPE = 0
CLASSIFICATION_TYPE = U
NORAD_CAT_ID   = 25732
ELEMENT_SET_NO = 999
REV_AT_EPOCH   = 36966
BSTAR          = .68526614E-4
MEAN_MOTION_DOT = .99E-6
MEAN_MOTION_DDOT = 0

CCSDS_OMM_VERS = 2.0
CREATION_DATE  = 
ORIGINATOR     = 

OBJECT_NAME    = OKEAN-O
OBJECT_ID      = 1999-039A
CENTER_NAME    = EARTH
REF_FRAME      = TEME
TIME_SYSTEM    = UTC
MEAN_ELEMENT_THEORY = SGP/SGP4

EPOCH          = 2025-10-30T02:49:12.344736
MEAN_MOTION    = 14.80049884
ECCENTRICITY   = .00018044
INCLINATION    = 97.9666
RA_OF_ASC_NODE = 359.1845
ARG_OF_PERICENTER = 77.4298
MEAN_ANOMALY   = 282.7115

EPHEMERIS_TYPE = 0
CLASSIFICATION_TYPE = U
NORAD_CAT_ID   = 25860
ELEMENT_SET_NO = 999
REV_AT_EPOCH   = 41507
BSTAR          = .13387796E-3
MEAN_MOTION_DOT = .962E-5
MEAN_MOTION_DDOT = 0

CCSDS_OMM_VERS = 2.0
CREATION_DATE  = 
ORIGINATOR     = 

OBJECT_NAME    = SL-16 R/B
OBJECT_ID      = 1999-039B
CENTER_NAME    = EARTH
REF_FRAME      = TEME
TIME_SYSTEM    = UTC
MEAN_ELEMENT_THEORY = SGP/SGP4

EPOCH          = 2025-10-30T03:42:51.959520
MEAN_MOTION    = 14.81492013
ECCENTRICITY   = .00140172
INCLINATION    = 98.0190
RA_OF_ASC_NODE = 357.2899
ARG_OF_PERICENTER = 325.4085
MEAN_ANOMALY   = 34.6214

EPHEMERIS_TYPE = 0
CLASSIFICATION_TYPE = U
NORAD_CAT_ID   = 25861
ELEMENT_SET_NO = 999
REV_AT_EPOCH   = 41753
BSTAR          = .11371126E-3
MEAN_MOTION_DOT = .838E-5
MEAN_MOTION_DDOT = 0

CCSDS_OMM_VERS = 2.0
CREATION_DATE  = 
ORIGINATOR     = 

OBJECT_NAME    = DELTA 2 R/B
OBJECT_ID      = 1999-041E
CENTER_NAME    = EARTH
REF_FRAME      = TEME
TIME_SYSTEM    = UTC
MEAN_ELEMENT_THEORY = SGP/SGP4

EPOCH          = 2025-10-29T21:03:49.318560
MEAN_MOTION    = 14.11249873
ECCENTRICITY   = .05045946
INCLINATION    = 51.7628
RA_OF_ASC_NODE = 103.5068
ARG_OF_PERICENTER = 322.4927
MEAN_ANOMALY   = 34.1772

EPHEMERIS_TYPE = 0
CLASSIFICATION_TYPE = U
NORAD_CAT_ID   = 25876
ELEMENT_SET_NO = 999
REV_AT_EPOCH   = 34455
BSTAR          = .16573457E-3
MEAN_MOTION_DOT = .788E-5
MEAN_MOTION_DDOT = 0

CCSDS_OMM_VERS = 2.0
CREATION_DATE  = 
ORIGINATOR     = 

OBJECT_NAME    = HELIOS 1B
OBJECT_ID      = 1999-064A
CENTER_NAME    = EARTH
REF_FRAME      = TEME
TIME_SYSTEM    = UTC
MEAN_ELEMENT_THEORY = SGP/SGP4

EPOCH          = 2025-10-30T06:30:06.922080
MEAN_MOTION    = 14.87013747
ECCENTRICITY   = .00024249
INCLINATION    = 98.1756
RA_OF_ASC_NODE = 196.6549
ARG_OF_PERICENTER = 101.6982
MEAN_ANOMALY   = 258.4506

EPHEMERIS_TYPE = 0
CLASSIFICATION_TYPE = U
NORAD_CAT_ID   = 25977
ELEMENT_SET_NO = 999
REV_AT_EPOCH   = 66587
BSTAR          = .31630788E-3
MEAN_MOTION_DOT = .2776E-4
MEAN_MOTION_DDOT = 0

CCSDS_OMM_VERS = 2.0
CREATION_DATE  = 
ORIGINATOR     = 

OBJECT_NAME    = TERRA
OBJECT_ID      = 1999-068A
CENTER_NAME    = EARTH
REF_FRAME      = TEME
TIME_SYSTEM    = UTC
MEAN_ELEMENT_THEORY = SGP/SGP4

EPOCH          = 2025-10-30T07:29:45.057120
MEAN_MOTION    = 14.60875945
ECCENTRICITY   = .00014145
INCLINATION    = 97.9812
RA_OF_ASC_NODE = 356.5751
ARG_OF_PERICENTER = 202.8624
MEAN_ANOMALY   = 227.3553

EPHEMERIS_TYPE = 0
CLASSIFICATION_TYPE = U
NORAD_CAT_ID   = 25994
ELEMENT_SET_NO = 999
REV_AT_EPOCH   = 37604
BSTAR          = .14977743E-3
MEAN_MOTION_DOT = .688E-5
MEAN_MOTION_DDOT = 0

CCSDS_OMM_VERS = 2.0
CREATION_DATE  = 
ORIGINATOR     = 

OBJECT_NAME    = SL-16 R/B
OBJECT_ID      = 2000-006B
CENTER_NAME    = EARTH
REF_FRAME      = TEME
TIME_SYSTEM    = UTC
MEAN_ELEMENT_THEORY = SGP/SGP4

EPOCH          = 2025-10-30T07:21:12.610080
MEAN_MOTION    = 14.15796473
ECCENTRICITY   = .00159556
INCLINATION    = 71.0044
RA_OF_ASC_NODE = 11.9825
ARG_OF_PERICENTER = 12.3846
MEAN_ANOMALY   = 347.7666

EPHEMERIS_TYPE = 0
CLASSIFICATION_TYPE = U
NORAD_CAT_ID   = 26070
ELEMENT_SET_NO = 999
REV_AT_EPOCH   = 33010
BSTAR          = .18917324E-3
MEAN_MOTION_DOT = .325E-5
MEAN_MOTION_DDOT = 0

